STARLINK-5095
1 56885U 23083K   26090.83335647  .00803122  00000+0  28845-1 0  9997
2 56885  43.0004 319.6023 0001886 259.9251  86.4185 15.25350610  5819
